NORAD_CAT_ID,OBJECT_NAME,OBJECT_TYPE,EPOCH,MEAN_MOTION,ECCENTRICITY,INCLINATION,RA_OF_ASC_NODE,ARG_OF_PERICENTER,MEAN_ANOMALY,BSTAR,MEAN_MOTION_DOT,MEAN_MOTION_DDOT,TLE_LINE0,TLE_LINE1,TLE_LINE2,SEMIMAJOR_AXIS,PERIOD,APOGEE,PERIGEE,DECAYED
53403.0,STARLINK-4507,PAYLOAD,2023-02-12 07:09:39,15.08832673,0.0001306,53.2179,118.2417,124.839,235.2725,-0.00013874,-2.495e-05,0.0,0 STARLINK-4507,1 53403U 22097R   23043.29837215 -.00002495  00000-0 -13874-3 0  9992,2 53403  53.2179 118.2417 0001306 124.8390 235.2725 15.08832673 28734,6917.903,95.438,540.671,538.864,0.0
53403.0,STARLINK-4507,PAYLOAD,2023-02-12 11:55:48,15.08846342,0.0001239,53.2168,117.3496,114.9476,245.1645,9.4608e-05,1.218e-05,0.0,0 STARLINK-4507,1 53403U 22097R   23043.49708573  .00001218  00000-0  94608-4 0  9993,2 53403  53.2168 117.3496 0001239 114.9476 245.1645 15.08846342 28761,6917.861,95.437,540.583,538.869,0.0
53403.0,STARLINK-4507,PAYLOAD,2023-02-13 02:14:17,15.08836772,0.0001198,53.2176,114.6781,106.6775,253.4348,0.00017439,2.488e-05,0.0,0 STARLINK-4507,1 53403U 22097R   23044.09325355  .00002488  00000-0  17439-3 0  9999,2 53403  53.2176 114.6781 0001198 106.6775 253.4348 15.08836772 28859,6917.89,95.438,540.584,538.926,0.0
53403.0,STARLINK-4507,PAYLOAD,2023-02-13 11:46:35,15.08849212,0.000105,53.2165,112.8882,111.1778,248.9326,0.00035098,5.304e-05,0.0,0 STARLINK-4507,1 53403U 22097R   23044.49068828  .00005304  00000-0  35098-3 0  9993,2 53403  53.2165 112.8882 0001050 111.1778 248.9326 15.08849212 29400,6917.852,95.437,540.444,538.991,0.0
53403.0,STARLINK-4507,PAYLOAD,2023-02-14 02:05:04,15.08825816,0.0001539,53.2161,110.2107,112.4677,247.6478,-9.6771e-05,-1.827e-05,0.0,0 STARLINK-4507,1 53403U 22097R   23045.08685829 -.00001827  00000-0 -96771-4 0  9999,2 53403  53.2161 110.2107 0001539 112.4677 247.6478 15.08825816 29006,6917.924,95.438,540.853,538.724,0.0
53403.0,STARLINK-4507,PAYLOAD,2023-02-14 13:12:46,15.08833748,0.00014,53.2169,108.1294,110.1868,249.9275,5.1191e-05,5.27e-06,0.0,0 STARLINK-4507,1 53403U 22097R   23045.55053977  .00000527  00000-0  51191-4 0  9995,2 53403  53.2169 108.1294 0001400 110.1868 249.9275 15.08833748 29565,6917.899,95.438,540.733,538.796,0.0
53403.0,STARLINK-4507,PAYLOAD,2023-02-15 03:31:14,15.08838182,0.0001444,53.2162,105.4533,94.6589,265.4568,0.00016116,2.278e-05,0.0,0 STARLINK-4507,1 53403U 22097R   23046.14669766  .00002278  00000-0  16116-3 0  9992,2 53403  53.2162 105.4533 0001444  94.6589 265.4568 15.08838182 29169,6917.886,95.438,540.75,538.752,0.0
53403.0,STARLINK-4507,PAYLOAD,2023-02-15 13:03:32,15.08866372,0.000146,53.2162,103.6693,99.8521,260.2636,0.00082734,0.00012913,0.0,0 STARLINK-4507,1 53403U 22097R   23046.54412863  .00012913  00000-0  82734-3 0  9996,2 53403  53.2162 103.6693 0001460  99.8521 260.2636 15.08866372 29225,6917.8,95.436,540.675,538.655,0.0
53403.0,STARLINK-4507,PAYLOAD,2023-02-16 08:08:09,15.08879022,0.0001508,53.2166,100.1007,100.4839,259.6324,0.0012835,0.0002022,0.0,0 STARLINK-4507,1 53403U 22097R   23047.33900235  .00020220  00000-0  12835-2 0  9993,2 53403  53.2166 100.1007 0001508 100.4839 259.6324 15.08879022 29349,6917.761,95.435,540.669,538.583,0.0
53403.0,STARLINK-4507,PAYLOAD,2023-02-16 12:54:18,15.08896785,0.00015,53.2172,99.2084,99.0331,261.083,0.0023459,0.00037303,0.0,0 STARLINK-4507,1 53403U 22097R   23047.53771610  .00037303  00000-0  23459-2 0  9992,2 53403  53.2172  99.2084 0001500  99.0331 261.0830 15.08896785 29862,6917.707,95.434,540.609,538.534,0.0
53403.0,STARLINK-4507,PAYLOAD,2023-02-17 03:12:48,15.0883371,0.0001481,53.2171,96.5324,100.7394,259.3765,0.0010204,0.00015986,0.0,0 STARLINK-4507,1 53403U 22097R   23048.13389057  .00015986  00000-0  10204-2 0  9996,2 53403  53.2171  96.5324 0001481 100.7394 259.3765 15.08833710 29467,6917.9,95.438,540.789,538.74,0.0
53403.0,STARLINK-4507,PAYLOAD,2023-02-17 12:45:08,15.08817054,0.0001007,53.2173,94.7483,85.686,274.4247,0.0024038,0.00038152,0.0,0 STARLINK-4507,1 53403U 22097R   23048.53134290  .00038152  00000-0  24038-2 0  9997,2 53403  53.2173  94.7483 0001007  85.6860 274.4247 15.08817054 29521,6917.951,95.439,540.512,539.119,0.0
53403.0,STARLINK-4507,PAYLOAD,2023-02-17 14:20:31,15.08819373,0.0001008,53.2172,94.4505,86.6684,273.4424,0.0021296,0.00033748,0.0,0 STARLINK-4507,1 53403U 22097R   23048.59758414  .00033748  00000-0  21296-2 0  9992,2 53403  53.2172  94.4505 0001008  86.6684 273.4424 15.08819373 30027,6917.943,95.439,540.506,539.111,0.0
53403.0,STARLINK-4507,PAYLOAD,2023-02-18 09:25:09,15.08841154,0.0001031,53.2178,90.8815,82.6175,277.4934,0.00098579,0.00015436,0.0,0 STARLINK-4507,1 53403U 22097R   23049.39246914  .00015436  00000-0  98579-3 0  9991,2 53403  53.2178  90.8815 0001031  82.6175 277.4934 15.08841154 29653,6917.877,95.437,540.455,539.029,0.0
53403.0,STARLINK-4507,PAYLOAD,2023-02-18 12:35:55,15.08848921,0.0001064,53.2177,90.2865,85.4812,274.6301,0.0011594,0.00018216,0.0,0 STARLINK-4507,1 53403U 22097R   23049.52494821  .00018216  00000-0  11594-2 0  9998,2 53403  53.2177  90.2865 0001064  85.4812 274.6301 15.08848921 30160,6917.853,95.437,540.454,538.982,0.0
53403.0,STARLINK-4507,PAYLOAD,2023-02-18 14:11:18,15.08853762,0.0001075,53.2178,89.9892,85.699,274.4125,0.0012266,0.00019295,0.0,0 STARLINK-4507,1 53403U 22097R   23049.59118710  .00019295  00000-0  12266-2 0  9990,2 53403  53.2178  89.9892 0001075  85.6990 274.4125 15.08853762 29683,6917.838,95.437,540.447,538.96,0.0
53403.0,STARLINK-4507,PAYLOAD,2023-02-19 09:15:55,15.0886075,0.0001156,53.2173,86.421,86.4211,273.6913,0.00060194,9.31e-05,0.0,0 STARLINK-4507,1 53403U 22097R   23050.38606043  .00009310  00000-0  60194-3 0  9991,2 53403  53.2173  86.4210 0001156  86.4211 273.6913 15.08860750 30299,6917.817,95.436,540.482,538.882,0.0
53403.0,STARLINK-4507,PAYLOAD,2023-02-19 14:02:04,15.08869814,0.0001221,53.2174,85.5287,88.8276,271.2856,0.00080009,0.00012479,0.0,0 STARLINK-4507,1 53403U 22097R   23050.58477621  .00012479  00000-0  80009-3 0  9998,2 53403  53.2174  85.5287 0001221  88.8276 271.2856 15.08869814 29832,6917.789,95.436,540.499,538.81,0.0
53403.0,STARLINK-4507,PAYLOAD,2023-02-19 18:48:14,15.0883454,0.0002906,53.2163,84.6333,89.3238,270.8087,-0.00017103,-3.009e-05,0.0,0 STARLINK-4507,1 53403U 22097R   23050.78350221 -.00003009  00000-0 -17103-3 0  9992,2 53403  53.2163  84.6333 0002906  89.3238 270.8087 15.08834540 29869,6917.897,95.438,541.772,537.752,0.0
53403.0,STARLINK-4507,PAYLOAD,2023-02-20 09:06:42,15.08849246,0.0001135,53.217,81.9612,97.8685,262.2436,0.00018736,2.696e-05,0.0,0 STARLINK-4507,1 53403U 22097R   23051.37965768  .00002696  00000-0  18736-3 0  9998,2 53403  53.2170  81.9612 0001135  97.8685 262.2436 15.08849246 29952,6917.852,95.437,540.502,538.932,0.0
53403.0,STARLINK-4507,PAYLOAD,2023-02-20 12:17:28,15.08854109,0.0001263,53.2167,81.3662,100.2648,259.8486,0.00037202,5.64e-05,0.0,0 STARLINK-4507,1 53403U 22097R   23051.51213639  .00005640  00000-0  37202-3 0  9998,2 53403  53.2167  81.3662 0001263 100.2648 259.8486 15.08854109 30466,6917.837,95.437,540.576,538.829,0.0
53403.0,STARLINK-4507,PAYLOAD,2023-02-21 01:00:34,15.08843051,0.0001623,53.2154,78.9875,91.7356,268.3822,0.00021368,3.115e-05,0.0,0 STARLINK-4507,1 53403U 22097R   23052.04206137  .00003115  00000-0  21368-3 0  9993,2 53403  53.2154  78.9875 0001623  91.7356 268.3822 15.08843051 30058,6917.871,95.437,540.859,538.613,0.0
53403.0,STARLINK-4507,PAYLOAD,2023-02-21 08:57:29,15.0883995,0.00014,53.2181,77.5009,93.0805,267.0347,1.7095e-05,-1.6e-07,0.0,0 STARLINK-4507,1 53403U 22097R   23052.37326196 -.00000016  00000-0  17095-4 0  9998,2 53403  53.2181  77.5009 0001400  93.0805 267.0347 15.08839950 30599,6917.881,95.438,540.714,538.777,0.0
53403.0,STARLINK-4507,PAYLOAD,2023-02-21 13:43:39,15.08846045,0.0001585,53.2171,76.6081,89.7525,270.3649,0.00025152,3.718e-05,0.0,0 STARLINK-4507,1 53403U 22097R   23052.57198112  .00003718  00000-0  25152-3 0  9998,2 53403  53.2171  76.6081 0001585  89.7525 270.3649 15.08846045 30622,6917.862,95.437,540.823,538.63,0.0
53403.0,STARLINK-4507,PAYLOAD,2023-02-22 10:23:40,15.08845253,0.0001456,53.2173,72.7426,84.0365,276.0793,0.00020017,2.9e-05,0.0,0 STARLINK-4507,1 53403U 22097R   23053.43310211  .00002900  00000-0  20017-3 0  9997,2 53403  53.2173  72.7426 0001456  84.0365 276.0793 15.08845253 30264,6917.864,95.437,540.737,538.722,0.0
53403.0,STARLINK-4507,PAYLOAD,2023-02-22 18:20:35,15.08834755,0.0001198,53.2169,71.252,106.0149,254.0975,8.0504e-05,9.93e-06,0.0,0 STARLINK-4507,1 53403U 22097R   23053.76430413  .00000993  00000-0  80504-4 0  9998,2 53403  53.2169  71.2520 0001198 106.0149 254.0975 15.08834755 30315,6917.896,95.438,540.59,538.933,0.0
53403.0,STARLINK-4507,PAYLOAD,2023-02-23 11:49:50,15.08844566,0.0001353,53.2173,67.9837,99.3606,260.7539,0.00029694,4.442e-05,0.0,0 STARLINK-4507,1 53403U 22097R   23054.49294516  .00004442  00000-0  29694-3 0  9996,2 53403  53.2173  67.9837 0001353  99.3606 260.7539 15.08844566 30915,6917.866,95.437,540.667,538.795,0.0
53403.0,STARLINK-4507,PAYLOAD,2023-02-23 18:11:23,15.08840679,0.0001256,53.2172,66.7949,94.6352,265.4784,0.00026644,3.955e-05,0.0,0 STARLINK-4507,1 53403U 22097R   23054.75790691  .00003955  00000-0  26644-3 0  9990,2 53403  53.2172  66.7949 0001256  94.6352 265.4784 15.08840679 30952,6917.878,95.438,540.612,538.874,0.0
53403.0,STARLINK-4507,PAYLOAD,2023-02-24 00:32:55,15.08849587,0.0001297,53.2172,65.6051,91.9515,268.1626,0.00044156,6.748e-05,0.0,0 STARLINK-4507,1 53403U 22097R   23055.02286583  .00006748  00000-0  44156-3 0  9992,2 53403  53.2172  65.6051 0001297  91.9515 268.1626 15.08849587 30503,6917.851,95.437,540.613,538.819,0.0
53403.0,STARLINK-4507,PAYLOAD,2023-02-24 11:40:37,15.08866593,0.0001322,53.217,63.5233,92.3489,267.7654,0.00090209,0.00014108,0.0,0 STARLINK-4507,1 53403U 22097R   23055.48653946  .00014108  00000-0  90209-3 0  9992,2 53403  53.2170  63.5233 0001322  92.3489 267.7654 15.08866593 31068,6917.799,95.436,540.579,538.75,0.0
